{
  "type": "FeatureCollection",
  "features": [
    {
      "type": "Feature",
      "properties": {
        "norad_id": 31033,
        "name": "FENGYUN 1C DEB",
        "group": "fengyun-1c-debris",
        "lat": -80.43157547418159,
        "lon": 96.32388674796778,
        "alt_km": 914.704323383391,
        "timestamp": "2025-12-26T04:40:06.066766+00:00",
        "meta_object_name": "FENGYUN 1C DEB",
        "meta_object_id": "1999-025BEB",
        "meta_epoch": "2025-12-25T11:12:03.348288",
        "meta_mean_motion": 14.27466706,
        "meta_eccentricity": 0.0154181,
        "meta_inclination": 98.4399,
        "meta_ra_of_asc_node": 337.3578,
        "meta_arg_of_pericenter": 73.3068,
        "meta_mean_anomaly": 54.6243,
        "meta_ephemeris_type": 0,
        "meta_classification_type": "U",
        "meta_norad_cat_id": 31033,
        "meta_element_set_no": 999,
        "meta_rev_at_epoch": 97527,
        "meta_bstar": 0.0002276,
        "meta_mean_motion_dot": 5.91e-06,
        "meta_mean_motion_ddot": 0,
        "tle_line1": "1 31033U 99025BEB 25359.46670542  .00000591  00000+0  22760-3 0  9997",
        "tle_line2": "2 31033  98.4399 337.3578 0154181  73.3068  54.6243 14.27466706975274"
      },
      "geometry": {
        "type": "Point",
        "coordinates": [
          96.32388674796778,
          -80.43157547418159
        ]
      }
    },
    {
      "type": "Feature",
      "properties": {
        "norad_id": 31036,
        "name": "FENGYUN 1C DEB",
        "group": "fengyun-1c-debris",
        "lat": 41.39923726815692,
        "lon": 99.46206224783909,
        "alt_km": 823.14187896986,
        "timestamp": "2025-12-26T04:40:06.066776+00:00",
        "meta_object_name": "FENGYUN 1C DEB",
        "meta_object_id": "1999-025BEE",
        "meta_epoch": "2025-12-25T19:14:09.397824",
        "meta_mean_motion": 14.49101222,
        "meta_eccentricity": 0.0137823,
        "meta_inclination": 98.9152,
        "meta_ra_of_asc_node": 107.0013,
        "meta_arg_of_pericenter": 225.1413,
        "meta_mean_anomaly": 287.8117,
        "meta_ephemeris_type": 0,
        "meta_classification_type": "U",
        "meta_norad_cat_id": 31036,
        "meta_element_set_no": 999,
        "meta_rev_at_epoch": 57496,
        "meta_bstar": 0.00029628048,
        "meta_mean_motion_dot": 1.213e-05,
        "meta_mean_motion_ddot": 0,
        "tle_line1": "1 31036U 99025BEE 25359.80149766  .00001213  00000+0  29628-3 0  9999",
        "tle_line2": "2 31036  98.9152 107.0013 0137823 225.1413 287.8117 14.49101222574964"
      },
      "geometry": {
        "type": "Point",
        "coordinates": [
          99.46206224783909,
          41.39923726815692
        ]
      }
    },
    {
      "type": "Feature",
      "properties": {
        "norad_id": 31038,
        "name": "FENGYUN 1C DEB",
        "group": "fengyun-1c-debris",
        "lat": 43.08921547442786,
        "lon": 76.51267920840851,
        "alt_km": 784.3283536958015,
        "timestamp": "2025-12-26T04:40:06.066786+00:00",
        "meta_object_name": "FENGYUN 1C DEB",
        "meta_object_id": "1999-025BEG",
        "meta_epoch": "2025-12-25T16:50:14.476416",
        "meta_mean_motion": 14.45874155,
        "meta_eccentricity": 0.00845337,
        "meta_inclination": 99.0115,
        "meta_ra_of_asc_node": 84.5262,
        "meta_arg_of_pericenter": 189.7685,
        "meta_mean_anomaly": 170.1865,
        "meta_ephemeris_type": 0,
        "meta_classification_type": "U",
        "meta_norad_cat_id": 31038,
        "meta_element_set_no": 999,
        "meta_rev_at_epoch": 98422,
        "meta_bstar": 0.00059412726,
        "meta_mean_motion_dot": 2.154e-05,
        "meta_mean_motion_ddot": 0,
        "tle_line1": "1 31038U 99025BEG 25359.70155644  .00002154  00000+0  59413-3 0  9992",
        "tle_line2": "2 31038  99.0115  84.5262 0084533 189.7685 170.1865 14.45874155984223"
      },
      "geometry": {
        "type": "Point",
        "coordinates": [
          76.51267920840851,
          43.08921547442786
        ]
      }
    },
    {
      "type": "Feature",
      "properties": {
        "norad_id": 31040,
        "name": "FENGYUN 1C DEB",
        "group": "fengyun-1c-debris",
        "lat": 41.51132744027456,
        "lon": 177.45320397735392,
        "alt_km": 786.5497669280949,
        "timestamp": "2025-12-26T04:40:06.066796+00:00",
        "meta_object_name": "FENGYUN 1C DEB",
        "meta_object_id": "1999-025BEJ",
        "meta_epoch": "2025-12-24T04:52:38.079264",
        "meta_mean_motion": 14.17685286,
        "meta_eccentricity": 0.00628633,
        "meta_inclination": 98.6587,
        "meta_ra_of_asc_node": 347.7613,
        "meta_arg_of_pericenter": 161.1139,
        "meta_mean_anomaly": 259.7243,
        "meta_ephemeris_type": 0,
        "meta_classification_type": "U",
        "meta_norad_cat_id": 31040,
        "meta_element_set_no": 999,
        "meta_rev_at_epoch": 96869,
        "meta_bstar": 0.00026602335,
        "meta_mean_motion_dot": 5.1e-06,
        "meta_mean_motion_ddot": 0,
        "tle_line1": "1 31040U 99025BEJ 25358.20321851  .00000510  00000+0  26602-3 0  9992",
        "tle_line2": "2 31040  98.6587 347.7613 0062863 161.1139 259.7243 14.17685286968699"
      },
      "geometry": {
        "type": "Point",
        "coordinates": [
          177.45320397735392,
          41.51132744027456
        ]
      }
    },
    {
      "type": "Feature",
      "properties": {
        "norad_id": 31041,
        "name": "FENGYUN 1C DEB",
        "group": "fengyun-1c-debris",
        "lat": 27.449636003584654,
        "lon": 24.492385309627192,
        "alt_km": 848.046741143593,
        "timestamp": "2025-12-26T04:40:06.066806+00:00",
        "meta_object_name": "FENGYUN 1C DEB",
        "meta_object_id": "1999-025BEK",
        "meta_epoch": "2025-12-25T13:17:44.691936",
        "meta_mean_motion": 14.17947812,
        "meta_eccentricity": 0.008796,
        "meta_inclination": 99.2042,
        "meta_ra_of_asc_node": 28.6602,
        "meta_arg_of_pericenter": 283.7501,
        "meta_mean_anomaly": 75.3894,
        "meta_ephemeris_type": 0,
        "meta_classification_type": "U",
        "meta_norad_cat_id": 31041,
        "meta_element_set_no": 999,
        "meta_rev_at_epoch": 95671,
        "meta_bstar": 0.0021353,
        "meta_mean_motion_dot": 4.493e-05,
        "meta_mean_motion_ddot": 0,
        "tle_line1": "1 31041U 99025BEK 25359.55398949  .00004493  00000+0  21353-2 0  9995",
        "tle_line2": "2 31041  99.2042  28.6602 0087960 283.7501  75.3894 14.17947812956715"
      },
      "geometry": {
        "type": "Point",
        "coordinates": [
          24.492385309627192,
          27.449636003584654
        ]
      }
    },
    {
      "type": "Feature",
      "properties": {
        "norad_id": 31043,
        "name": "FENGYUN 1C DEB",
        "group": "fengyun-1c-debris",
        "lat": -61.38338896761544,
        "lon": 34.04314652369043,
        "alt_km": 845.7459708489368,
        "timestamp": "2025-12-26T04:40:06.066816+00:00",
        "meta_object_name": "FENGYUN 1C DEB",
        "meta_object_id": "1999-025BEM",
        "meta_epoch": "2025-12-24T14:21:11.088000",
        "meta_mean_motion": 14.0844703,
        "meta_eccentricity": 0.00408946,
        "meta_inclination": 98.7634,
        "meta_ra_of_asc_node": 16.0696,
        "meta_arg_of_pericenter": 330.3974,
        "meta_mean_anomaly": 156.9764,
        "meta_ephemeris_type": 0,
        "meta_classification_type": "U",
        "meta_norad_cat_id": 31043,
        "meta_element_set_no": 999,
        "meta_rev_at_epoch": 96154,
        "meta_bstar": 0.0004246316,
        "meta_mean_motion_dot": 6.9e-06,
        "meta_mean_motion_ddot": 0,
        "tle_line1": "1 31043U 99025BEM 25358.59804500  .00000690  00000+0  42463-3 0  9996",
        "tle_line2": "2 31043  98.7634  16.0696 0040894 330.3974 156.9764 14.08447030961546"
      },
      "geometry": {
        "type": "Point",
        "coordinates": [
          34.04314652369043,
          -61.38338896761544
        ]
      }
    },
    {
      "type": "Feature",
      "properties": {
        "norad_id": 31046,
        "name": "FENGYUN 1C DEB",
        "group": "fengyun-1c-debris",
        "lat": -71.88707721131557,
        "lon": 149.93293729863598,
        "alt_km": 708.8624819940842,
        "timestamp": "2025-12-26T04:40:06.066826+00:00",
        "meta_object_name": "FENGYUN 1C DEB",
        "meta_object_id": "1999-025BEQ",
        "meta_epoch": "2025-12-25T19:51:10.098144",
        "meta_mean_motion": 14.64291331,
        "meta_eccentricity": 0.00449256,
        "meta_inclination": 98.9677,
        "meta_ra_of_asc_node": 120.6673,
        "meta_arg_of_pericenter": 61.8117,
        "meta_mean_anomaly": 89.2281,
        "meta_ephemeris_type": 0,
        "meta_classification_type": "U",
        "meta_norad_cat_id": 31046,
        "meta_element_set_no": 999,
        "meta_rev_at_epoch": 96834,
        "meta_bstar": 0.003672749,
        "meta_mean_motion_dot": 0.00019655,
        "meta_mean_motion_ddot": 0,
        "tle_line1": "1 31046U 99025BEQ 25359.82720021  .00019655  00000+0  36727-2 0  9997",
        "tle_line2": "2 31046  98.9677 120.6673 0044925  61.8117  89.2281 14.64291331968349"
      },
      "geometry": {
        "type": "Point",
        "coordinates": [
          149.93293729863598,
          -71.88707721131557
        ]
      }
    }
  ]
}